NAVSTAR 67 (USA 239)
1 38833U 12053A   26189.25598082  .00000059  00000+0  00000+0 0  9993
2 38833  53.5888 142.7363 0181554  66.1010 295.7672  2.00567795 99869
